     2              NAVIGATION DATA                         RINEX VERSION / TYPE
CCRINEXN V1.6.0 UX  CDDIS               11-APR-00 23:43     PGM / RUN BY / DATE 
IGS BROADCAST EPHEMERIS FILE                                COMMENT             
    0.1583D-07  0.1490D-07 -0.1192D-06 -0.1192D-06          ION ALPHA           
    0.1065D+06  0.6554D+05 -0.1966D+06 -0.1966D+06          ION BETA            
   -0.279396772385D-08-0.976996261670D-14    61440      190 DELTA-UTC: A0,A1,T,W
    13                                                      LEAP SECONDS        
                                                            END OF HEADER       
 7 03  4 11 17 59 28.0 0.426274724305D-03 0.227373675443D-10 0.000000000000D+00
    0.145000000000D+03 0.234375000000D+02 0.550808657677D-08-0.114481115405D+01
    0.148080289364D-05 0.124142877758D-01 0.571832060814D-05 0.515359060287D+04
    0.496768000000D+06-0.186264514923D-08 0.916168572887D+00 0.312924385071D-06
    0.939919453132D+00 0.259687500000D+03-0.189877051157D+01-0.851678332964D-08
   -0.807176479283D-10 0.100000000000D+01 0.121300000000D+04 0.000000000000D+00
    0.200000000000D+01 0.000000000000D+00-0.186264514923D-08 0.145000000000D+03
    0.489618000000D+06 0.400000000000D+01 0.000000000000D+00 0.000000000000D+00
 2 03  4 11 17 59 44.0-0.960803590715D-04-0.648014975013D-11 0.000000000000D+00
    0.216000000000D+03-0.150000000000D+01 0.504163857591D-08 0.199251328829D+01
   -0.281259417534D-06 0.228533416521D-01 0.975467264652D-05 0.515354577827D+04
    0.496784000000D+06 0.137835741043D-06-0.178855431029D+00-0.504776835442D-06
    0.932677141129D+00 0.172312500000D+03-0.182360612737D+01-0.798104672835D-08
    0.476091259683D-09 0.100000000000D+01 0.121300000000D+04 0.000000000000D+00
    0.000000000000D+00 0.000000000000D+00-0.186264514923D-08 0.216000000000D+03
    0.494160000000D+06 0.000000000000D+00 0.000000000000D+00 0.000000000000D+00
 4 03  4 11 17 59 44.0 0.404426828027D-04 0.204636307899D-11 0.000000000000D+00
    0.148000000000D+03 0.239687500000D+02 0.439125434194D-08 0.218734037761D+01
    0.154785811901D-05 0.626477086917D-02 0.997260212898D-05 0.515359599114D+04
    0.496784000000D+06-0.372529029846D-07 0.203127938708D+01 0.137835741043D-06
    0.965500568243D+00 0.191406250000D+03-0.169202557726D+00-0.790818655057D-08
   -0.483234414367D-09 0.100000000000D+01 0.121300000000D+04 0.000000000000D+00
    0.200000000000D+01 0.000000000000D+00-0.605359673500D-08 0.148000000000D+03
    0.490458000000D+06 0.400000000000D+01 0.000000000000D+00 0.000000000000D+00
 6 03  4 11 17 59 44.0-0.364659354091D-05-0.227373675443D-12 0.000000000000D+00
    0.196000000000D+03 0.175625000000D+02 0.546487049093D-08 0.312751425121D+01
    0.730156898499D-06 0.646015710663D-02 0.605545938015D-05 0.515379172325D+04
    0.496784000000D+06 0.447034835815D-07 0.944931647465D+00-0.180676579475D-06
    0.938201808831D+00 0.253375000000D+03-0.211551190306D+01-0.839749264642D-08
   -0.116076263614D-09 0.100000000000D+01 0.121300000000D+04 0.000000000000D+00
    0.200000000000D+01 0.000000000000D+00-0.512227416039D-08 0.196000000000D+03
    0.496458000000D+06 0.400000000000D+01 0.000000000000D+00 0.000000000000D+00
 8 03  4 11 17 59 44.0 0.290645286441D-03 0.156887836056D-10 0.000000000000D+00
    0.680000000000D+02-0.104125000000D+03 0.419803200774D-08-0.296189887395D+01
   -0.520981848240D-05 0.853302085307D-02 0.933744013310D-05 0.515376177788D+04
    0.496784000000D+06 0.242143869400D-07-0.110267011496D+01 0.100582838059D-06
    0.961530019859D+00 0.197281250000D+03 0.227395597983D+01-0.775318009393D-08
    0.464305054455D-10 0.100000000000D+01 0.121300000000D+04 0.000000000000D+00
    0.200000000000D+01 0.000000000000D+00-0.372529029846D-08 0.324000000000D+03
    0.495918000000D+06 0.400000000000D+01 0.000000000000D+00 0.000000000000D+00
13 03  4 11 17 59 44.0-0.257850624621D-04-0.568434188608D-12 0.000000000000D+00
    0.220000000000D+02-0.448750000000D+02 0.428517849489D-08 0.418592589799D+00
   -0.234320759773D-05 0.201424793340D-02 0.298954546452D-05 0.515363379860D+04
    0.496784000000D+06 0.242143869400D-07-0.217952665566D+01 0.122934579849D-06
    0.977553168476D+00 0.330250000000D+03 0.443908022894D+00-0.822284251440D-08
   -0.332156692802D-10 0.100000000000D+01 0.121300000000D+04 0.000000000000D+00
    0.200000000000D+01 0.000000000000D+00-0.111758708954D-07 0.220000000000D+02
    0.491928000000D+06 0.000000000000D+00 0.000000000000D+00 0.000000000000D+00
21 03  4 11 17 59 44.0-0.100726727396D-03 0.175077730091D-10 0.000000000000D+00
    0.177000000000D+03 0.280312500000D+02 0.448947271885D-08 0.313751964681D+01
    0.152736902237D-05 0.747013371438D-02 0.862404704094D-05 0.515351957703D+04
    0.496784000000D+06-0.931322574616D-07 0.205846315381D+01 0.726431608200D-07
    0.959042207706D+00 0.215375000000D+03 0.278540049507D+01-0.789282876800D-08
   -0.339657005221D-09 0.100000000000D+01 0.121300000000D+04 0.000000000000D+00
    0.200000000000D+01 0.630000000000D+02-0.884756445885D-08 0.177000000000D+03
    0.496488000000D+06 0.400000000000D+01 0.000000000000D+00 0.000000000000D+00
24 03  4 11 17 59 44.0 0.219265930355D-04 0.272848410532D-11 0.000000000000D+00
    0.129000000000D+03 0.277500000000D+02 0.412731477637D-08 0.296352681796D+01
    0.171177089214D-05 0.935988104902D-02 0.945478677750D-05 0.515367239571D+04
    0.496784000000D+06 0.154599547386D-06 0.205376400786D+01-0.745058059692D-08
    0.975717877766D+00 0.200968750000D+03-0.148995106304D+01-0.766317634491D-08
   -0.440018328530D-09 0.100000000000D+01 0.121300000000D+04 0.000000000000D+00
    0.200000000000D+01 0.000000000000D+00-0.931322574616D-09 0.129000000000D+03
    0.495168000000D+06 0.400000000000D+01 0.000000000000D+00 0.000000000000D+00
27 03  4 11 17 59 44.0 0.580068212003D-03-0.104591890704D-10 0.000000000000D+00
    0.440000000000D+02-0.116406250000D+03 0.457590489052D-08 0.203009484036D+01
   -0.605359673500D-05 0.171161368489D-01 0.892579555512D-05 0.515369328690D+04
    0.496784000000D+06-0.305473804474D-06-0.118564820063D+01-0.260770320892D-06
    0.945506054934D+00 0.203156250000D+03-0.230595389836D+01-0.807997942072D-08
    0.275011455331D-10 0.100000000000D+01 0.121300000000D+04 0.000000000000D+00
    0.200000000000D+01 0.000000000000D+00-0.419095158577D-08 0.440000000000D+02
    0.491208000000D+06 0.400000000000D+01 0.000000000000D+00 0.000000000000D+00
 1 03  4 11 18  0  0.0 0.279987696558D-03 0.193267624127D-11 0.000000000000D+00
    0.195000000000D+03-0.498437500000D+02 0.427946397114D-08 0.307778601426D+01
   -0.261515378952D-05 0.540332705714D-02 0.308081507683D-05 0.515372525787D+04
    0.496800000000D+06-0.149011611939D-07-0.216063111274D+01 0.484287738800D-07
    0.973314941194D+00 0.326718750000D+03-0.167702355570D+01-0.808319384033D-08
   -0.528593446610D-10 0.100000000000D+01 0.121300000000D+04 0.000000000000D+00
    0.200000000000D+01 0.000000000000D+00-0.325962901115D-08 0.195000000000D+03
    0.491058000000D+06 0.000000000000D+00 0.000000000000D+00 0.000000000000D+00
 3 03  4 11 18  0  0.0 0.390224158764D-06 0.329691829393D-11 0.000000000000D+00
    0.240000000000D+02 0.230625000000D+02 0.563094883734D-08-0.128956100097D+01
    0.116787850857D-05 0.433877808973D-02 0.582635402679D-05 0.515373308373D+04
    0.496800000000D+06 0.800937414169D-07 0.894895916830D+00-0.745058059692D-08
    0.930707054222D+00 0.249125000000D+03 0.530662213194D+00-0.852321216886D-08
   -0.332156692802D-10 0.100000000000D+01 0.121300000000D+04 0.000000000000D+00
    0.000000000000D+00 0.000000000000D+00-0.419095158577D-08 0.240000000000D+02
    0.495570000000D+06 0.000000000000D+00 0.000000000000D+00 0.000000000000D+00
 4 03  4 11 18  0  0.0 0.404440797865D-04 0.204636307899D-11 0.000000000000D+00
    0.125000000000D+03 0.239687500000D+02 0.439125434194D-08 0.218967209055D+01
    0.154785811901D-05 0.626476516482D-02 0.997260212898D-05 0.515359599876D+04
    0.496800000000D+06-0.372529029846D-07 0.203127929345D+01 0.137835741043D-06
    0.965500538984D+00 0.191375000000D+03-0.169200534510D+00-0.790782939284D-08
   -0.483234414367D-09 0.100000000000D+01 0.121300000000D+04 0.000000000000D+00
    0.280000000000D+01 0.000000000000D+00-0.605359673500D-08 0.637000000000D+03
    0.489618000000D+06 0.400000000000D+01 0.000000000000D+00 0.000000000000D+00
 5 03  4 11 18  0  0.0 0.953953713179D-05 0.159161572810D-11 0.000000000000D+00
    0.600000000000D+01 0.112500000000D+02 0.506413951317D-08 0.192445349845D+01
    0.635161995888D-06 0.433850509580D-02 0.927224755287D-05 0.515376803398D+04
    0.496800000000D+06-0.169500708580D-06-0.155518543434D+00-0.372529029846D-08
    0.935990605228D+00 0.183968750000D+03 0.698845313050D+00-0.824427197845D-08
    0.456447584303D-09 0.100000000000D+01 0.121300000000D+04 0.000000000000D+00
    0.280000000000D+01 0.000000000000D+00-0.419095158577D-08 0.600000000000D+01
    0.489618000000D+06 0.400000000000D+01 0.000000000000D+00 0.000000000000D+00
 6 03  4 11 18  0  0.0-0.365544110537D-05-0.227373675443D-12 0.000000000000D+00
    0.174000000000D+03 0.175625000000D+02 0.546487049093D-08 0.312984784693D+01
    0.730156898499D-06 0.646015116945D-02 0.605545938015D-05 0.515379180718D+04
    0.496800000000D+06 0.447034835815D-07 0.944931428027D+00-0.180676579475D-06
    0.938201762018D+00 0.253375000000D+03-0.211551228196D+01-0.839749264642D-08
   -0.116076263614D-09 0.100000000000D+01 0.121300000000D+04 0.000000000000D+00
    0.280000000000D+01 0.000000000000D+00-0.512227416039D-08 0.174000000000D+03
    0.491568000000D+06 0.400000000000D+01 0.000000000000D+00 0.000000000000D+00
